{
  "type": "FeatureCollection",
  "features": [
    {
      "type": "Feature",
      "properties": {
        "norad_id": 28054,
        "name": "DMSP 5D-3 F16 (USA 172)",
        "group": "weather",
        "lat": 48.370136274344894,
        "lon": -160.775805487965,
        "alt_km": 844.4523625575684,
        "timestamp": "2025-12-17T10:52:53.991389+00:00",
        "meta_object_name": "DMSP 5D-3 F16 (USA 172)",
        "meta_object_id": "2003-048A",
        "meta_epoch": "2025-12-17T00:19:41.602080",
        "meta_mean_motion": 14.14425875,
        "meta_eccentricity": 0.00063641,
        "meta_inclination": 99.0042,
        "meta_ra_of_asc_node": 8.5043,
        "meta_arg_of_pericenter": 307.3157,
        "meta_mean_anomaly": 105.6223,
        "meta_ephemeris_type": 0,
        "meta_classification_type": "U",
        "meta_norad_cat_id": 28054,
        "meta_element_set_no": 999,
        "meta_rev_at_epoch": 14373,
        "meta_bstar": 8.8345924e-05,
        "meta_mean_motion_dot": 1.24e-06,
        "meta_mean_motion_ddot": 0,
        "tle_line1": "1 28054U 03048A   25351.01367595  .00000124  00000+0  88346-4 0  9995",
        "tle_line2": "2 28054  99.0042   8.5043 0006364 307.3157 105.6223 14.14425875143738"
      },
      "geometry": {
        "type": "Point",
        "coordinates": [
          -160.775805487965,
          48.370136274344894
        ]
      }
    },
    {
      "type": "Feature",
      "properties": {
        "norad_id": 28912,
        "name": "METEOSAT-9 (MSG-2)",
        "group": "weather",
        "lat": -7.717316724875785,
        "lon": -64.95189932921024,
        "alt_km": 35775.52966531764,
        "timestamp": "2025-12-17T10:52:53.991438+00:00",
        "meta_object_name": "METEOSAT-9 (MSG-2)",
        "meta_object_id": "2005-049B",
        "meta_epoch": "2025-12-16T18:42:37.808928",
        "meta_mean_motion": 1.00278742,
        "meta_eccentricity": 0.0003392,
        "meta_inclination": 8.9482,
        "meta_ra_of_asc_node": 55.9391,
        "meta_arg_of_pericenter": 190.8619,
        "meta_mean_anomaly": 165.2785,
        "meta_ephemeris_type": 0,
        "meta_classification_type": "U",
        "meta_norad_cat_id": 28912,
        "meta_element_set_no": 999,
        "meta_rev_at_epoch": 516,
        "meta_bstar": 0,
        "meta_mean_motion_dot": 1.4e-06,
        "meta_mean_motion_ddot": 0,
        "tle_line1": "1 28912U 05049B   25350.77960427  .00000140  00000+0  00000+0 0  9990",
        "tle_line2": "2 28912   8.9482  55.9391 0003392 190.8619 165.2785  1.00278742  5165"
      },
      "geometry": {
        "type": "Point",
        "coordinates": [
          -64.95189932921024,
          -7.717316724875785
        ]
      }
    },
    {
      "type": "Feature",
      "properties": {
        "norad_id": 29522,
        "name": "DMSP 5D-3 F17 (USA 191)",
        "group": "weather",
        "lat": 76.23041141000151,
        "lon": -42.13406688745001,
        "alt_km": 839.9037802055273,
        "timestamp": "2025-12-17T10:52:53.991457+00:00",
        "meta_object_name": "DMSP 5D-3 F17 (USA 191)",
        "meta_object_id": "2006-050A",
        "meta_epoch": "2025-12-17T00:19:28.440768",
        "meta_mean_motion": 14.14921489,
        "meta_eccentricity": 0.00095698,
        "meta_inclination": 98.7391,
        "meta_ra_of_asc_node": 356.3137,
        "meta_arg_of_pericenter": 211.8944,
        "meta_mean_anomaly": 148.1651,
        "meta_ephemeris_type": 0,
        "meta_classification_type": "U",
        "meta_norad_cat_id": 29522,
        "meta_element_set_no": 999,
        "meta_rev_at_epoch": 98665,
        "meta_bstar": 0.00010266962,
        "meta_mean_motion_dot": 1.55e-06,
        "meta_mean_motion_ddot": 0,
        "tle_line1": "1 29522U 06050A   25351.01352362  .00000155  00000+0  10267-3 0  9998",
        "tle_line2": "2 29522  98.7391 356.3137 0009569 211.8944 148.1651 14.14921489986658"
      },
      "geometry": {
        "type": "Point",
        "coordinates": [
          -42.13406688745001,
          76.23041141000151
        ]
      }
    },
    {
      "type": "Feature",
      "properties": {
        "norad_id": 32958,
        "name": "FENGYUN 3A",
        "group": "weather",
        "lat": -50.467915418936116,
        "lon": 100.22632944453615,
        "alt_km": 831.4470960942654,
        "timestamp": "2025-12-17T10:52:53.991471+00:00",
        "meta_object_name": "FENGYUN 3A",
        "meta_object_id": "2008-026A",
        "meta_epoch": "2025-12-16T20:15:42.039648",
        "meta_mean_motion": 14.19515933,
        "meta_eccentricity": 0.00077579,
        "meta_inclination": 98.67,
        "meta_ra_of_asc_node": 290.2846,
        "meta_arg_of_pericenter": 297.3992,
        "meta_mean_anomaly": 62.6395,
        "meta_ephemeris_type": 0,
        "meta_classification_type": "U",
        "meta_norad_cat_id": 32958,
        "meta_element_set_no": 999,
        "meta_rev_at_epoch": 90953,
        "meta_bstar": 5.9576871e-05,
        "meta_mean_motion_dot": 8.2e-07,
        "meta_mean_motion_ddot": 0,
        "tle_line1": "1 32958U 08026A   25350.84423657  .00000082  00000+0  59577-4 0  9993",
        "tle_line2": "2 32958  98.6700 290.2846 0007757 297.3992  62.6395 14.19515933909535"
      },
      "geometry": {
        "type": "Point",
        "coordinates": [
          100.22632944453615,
          -50.467915418936116
        ]
      }
    },
    {
      "type": "Feature",
      "properties": {
        "norad_id": 35491,
        "name": "GOES 14",
        "group": "weather",
        "lat": 0.961929644757267,
        "lon": 136.80098102297126,
        "alt_km": 35836.341020370426,
        "timestamp": "2025-12-17T10:52:53.991486+00:00",
        "meta_object_name": "GOES 14",
        "meta_object_id": "2009-033A",
        "meta_epoch": "2025-12-16T16:14:51.956736",
        "meta_mean_motion": 1.00096608,
        "meta_eccentricity": 5.589e-05,
        "meta_inclination": 1.2127,
        "meta_ra_of_asc_node": 85.3588,
        "meta_arg_of_pericenter": 172.4672,
        "meta_mean_anomaly": 319.2126,
        "meta_ephemeris_type": 0,
        "meta_classification_type": "U",
        "meta_norad_cat_id": 35491,
        "meta_element_set_no": 999,
        "meta_rev_at_epoch": 476,
        "meta_bstar": 0,
        "meta_mean_motion_dot": 6e-08,
        "meta_mean_motion_ddot": 0,
        "tle_line1": "1 35491U 09033A   25350.67699024  .00000006  00000+0  00000+0 0  9999",
        "tle_line2": "2 35491   1.2127  85.3588 0000558 172.4672 319.2126  1.00096608  4762"
      },
      "geometry": {
        "type": "Point",
        "coordinates": [
          136.80098102297126,
          0.961929644757267
        ]
      }
    },
    {
      "type": "Feature",
      "properties": {
        "norad_id": 35951,
        "name": "DMSP 5D-3 F18 (USA 210)",
        "group": "weather",
        "lat": -54.86187213272382,
        "lon": -19.329645160565374,
        "alt_km": 852.4526977831101,
        "timestamp": "2025-12-17T10:52:53.991499+00:00",
        "meta_object_name": "DMSP 5D-3 F18 (USA 210)",
        "meta_object_id": "2009-057A",
        "meta_epoch": "2025-12-16T21:33:59.370912",
        "meta_mean_motion": 14.14772003,
        "meta_eccentricity": 0.00119692,
        "meta_inclination": 98.8837,
        "meta_ra_of_asc_node": 327.2786,
        "meta_arg_of_pericenter": 51.8294,
        "meta_mean_anomaly": 308.3956,
        "meta_ephemeris_type": 0,
        "meta_classification_type": "U",
        "meta_norad_cat_id": 35951,
        "meta_element_set_no": 999,
        "meta_rev_at_epoch": 83381,
        "meta_bstar": 0.00016882403,
        "meta_mean_motion_dot": 2.81e-06,
        "meta_mean_motion_ddot": 0,
        "tle_line1": "1 35951U 09057A   25350.89860383  .00000281  00000+0  16882-3 0  9992",
        "tle_line2": "2 35951  98.8837 327.2786 0011969  51.8294 308.3956 14.14772003833814"
      },
      "geometry": {
        "type": "Point",
        "coordinates": [
          -19.329645160565374,
          -54.86187213272382
        ]
      }
    },
    {
      "type": "Feature",
      "properties": {
        "norad_id": 36411,
        "name": "EWS-G2 (GOES 15)",
        "group": "weather",
        "lat": -0.5963336590846111,
        "lon": -49.03288247158335,
        "alt_km": 35771.00296619325,
        "timestamp": "2025-12-17T10:52:53.991513+00:00",
        "meta_object_name": "EWS-G2 (GOES 15)",
        "meta_object_id": "2010-008A",
        "meta_epoch": "2025-12-16T20:03:48.114720",
        "meta_mean_motion": 1.00270631,
        "meta_eccentricity": 0.00055232,
        "meta_inclination": 0.8237,
        "meta_ra_of_asc_node": 86.0789,
        "meta_arg_of_pericenter": 176.1378,
        "meta_mean_anomaly": 185.8352,
        "meta_ephemeris_type": 0,
        "meta_classification_type": "U",
        "meta_norad_cat_id": 36411,
        "meta_element_set_no": 999,
        "meta_rev_at_epoch": 5781,
        "meta_bstar": 0,
        "meta_mean_motion_dot": 6.2e-07,
        "meta_mean_motion_ddot": 0,
        "tle_line1": "1 36411U 10008A   25350.83597355  .00000062  00000+0  00000+0 0  9990",
        "tle_line2": "2 36411   0.8237  86.0789 0005523 176.1378 185.8352  1.00270631 57816"
      },
      "geometry": {
        "type": "Point",
        "coordinates": [
          -49.03288247158335,
          -0.5963336590846111
        ]
      }
    }
  ]
}